NORAD_CAT_ID,OBJECT_NAME,OBJECT_TYPE,EPOCH,MEAN_MOTION,ECCENTRICITY,INCLINATION,RA_OF_ASC_NODE,ARG_OF_PERICENTER,MEAN_ANOMALY,BSTAR,MEAN_MOTION_DOT,MEAN_MOTION_DDOT,TLE_LINE0,TLE_LINE1,TLE_LINE2,SEMIMAJOR_AXIS,PERIOD,APOGEE,PERIGEE,DECAYED
53845.0,STARLINK-4753,PAYLOAD,2024-05-04 04:21:19,15.08822236,0.0001407,53.2175,82.135,89.9872,270.1281,-7.251e-05,-1.441e-05,0.0,0 STARLINK-4753,1 53845U 22114AD  24125.18147496 -.00001441  00000-0 -72510-4 0  9990,2 53845  53.2175  82.1350 0001407  89.9872 270.1281 15.08822236 90607,6917.935,95.439,540.773,538.826,0.0
53845.0,STARLINK-4753,PAYLOAD,2024-05-04 13:53:37,15.08830237,0.0001448,53.2185,80.3509,87.18,272.9358,-1.4575e-05,-5.2e-06,0.0,0 STARLINK-4753,1 53845U 22114AD  24125.57891157 -.00000520  00000-0 -14575-4 0  9997,2 53845  53.2185  80.3509 0001448  87.1800 272.9358 15.08830237 90661,6917.91,95.438,540.777,538.774,0.0
53845.0,STARLINK-4753,PAYLOAD,2024-05-05 04:12:05,15.08844403,0.0001291,53.2174,77.6743,85.1711,274.9429,3.9972e-05,3.48e-06,0.0,0 STARLINK-4753,1 53845U 22114AD  24126.17506291  .00000348  00000-0  39972-4 0  9990,2 53845  53.2174  77.6743 0001291  85.1711 274.9429 15.08844403 90754,6917.867,95.437,540.625,538.839,0.0
53845.0,STARLINK-4753,PAYLOAD,2024-05-05 05:47:28,15.08846247,0.0001312,53.2175,77.3772,86.8416,273.2726,5.681e-05,6.16e-06,0.0,0 STARLINK-4753,1 53845U 22114AD  24126.24130118  .00000616  00000-0  56810-4 0  9997,2 53845  53.2175  77.3772 0001312  86.8416 273.2726 15.08846247 91300,6917.861,95.437,540.634,538.819,0.0
53845.0,STARLINK-4753,PAYLOAD,2024-05-06 05:38:15,15.08845686,0.0001556,53.2187,72.9158,77.247,282.8696,0.00020821,3.028e-05,0.0,0 STARLINK-4753,1 53845U 22114AD  24127.23489852  .00003028  00000-0  20821-3 0  9991,2 53845  53.2187  72.9158 0001556  77.2470 282.8696 15.08845686 90910,6917.863,95.437,540.804,538.652,0.0
53845.0,STARLINK-4753,PAYLOAD,2024-05-06 13:35:11,15.08839682,0.0001537,53.2177,71.43,81.3744,278.7422,0.00010046,1.311e-05,0.0,0 STARLINK-4753,1 53845U 22114AD  24127.56610545  .00001311  00000-0  10046-3 0  9993,2 53845  53.2177  71.4300 0001537  81.3744 278.7422 15.08839682 90966,6917.881,95.438,540.81,538.683,0.0
53845.0,STARLINK-4753,PAYLOAD,2024-05-07 05:29:01,15.0885352,0.0001364,53.2179,68.4511,92.7142,267.4006,4.4028e-05,4.13e-06,0.0,0 STARLINK-4753,1 53845U 22114AD  24128.22849482  .00000413  00000-0  44028-4 0  9991,2 53845  53.2179  68.4511 0001364  92.7142 267.4006 15.08853520 91066,6917.839,95.437,540.648,538.76,0.0
53845.0,STARLINK-4753,PAYLOAD,2024-05-07 13:25:58,15.08839648,0.0001308,53.2199,66.9681,90.7727,269.3415,-2.501e-05,-6.86e-06,0.0,0 STARLINK-4753,1 53845U 22114AD  24128.55970462 -.00000686  00000-0 -25010-4 0  9994,2 53845  53.2199  66.9681 0001308  90.7727 269.3415 15.08839648 91659,6917.881,95.438,540.651,538.842,0.0
53845.0,STARLINK-4753,PAYLOAD,2024-05-07 19:47:31,15.08839727,0.0001919,53.2197,65.7811,79.5913,280.5296,-7.1199e-05,-1.421e-05,0.0,0 STARLINK-4753,1 53845U 22114AD  24128.82466847 -.00001421  00000-0 -71199-4 0  9998,2 53845  53.2197  65.7811 0001919  79.5913 280.5296 15.08839727 91154,6917.881,95.438,541.074,538.419,0.0
53845.0,STARLINK-4753,PAYLOAD,2024-05-08 13:16:45,15.08842454,0.0001467,53.2189,62.5081,103.8199,256.2956,-8.3626e-05,-1.619e-05,0.0,0 STARLINK-4753,1 53845U 22114AD  24129.55330520 -.00001619  00000-0 -83626-4 0  9994,2 53845  53.2189  62.5081 0001467 103.8199 256.2956 15.08842454 91800,6917.873,95.437,540.753,538.723,0.0
53845.0,STARLINK-4753,PAYLOAD,2024-05-08 22:49:03,15.08842912,0.0001359,53.217,60.7244,96.3635,263.7512,3.6768e-05,2.97e-06,0.0,0 STARLINK-4753,1 53845U 22114AD  24129.95074049  .00000297  00000-0  36768-4 0  9993,2 53845  53.2170  60.7244 0001359  96.3635 263.7512 15.08842912 91868,6917.871,95.437,540.677,538.796,0.0
53845.0,STARLINK-4753,PAYLOAD,2024-05-09 05:10:35,15.08853976,0.0001322,53.2177,59.5353,91.1415,268.9728,2.5896e-05,1.24e-06,0.0,0 STARLINK-4753,1 53845U 22114AD  24130.21569433  .00000124  00000-0  25896-4 0  9999,2 53845  53.2177  59.5353 0001322  91.1415 268.9728 15.08853976 91364,6917.838,95.437,540.617,538.788,0.0
53845.0,STARLINK-4753,PAYLOAD,2024-05-09 22:39:51,15.08830289,0.0001417,53.2187,56.2608,108.8909,251.2237,0.00010731,1.42e-05,0.0,0 STARLINK-4753,1 53845U 22114AD  24130.94434824  .00001420  00000-0  10731-3 0  9995,2 53845  53.2187  56.2608 0001417 108.8909 251.2237 15.08830289 92016,6917.91,95.438,540.755,538.795,0.0
53845.0,STARLINK-4753,PAYLOAD,2024-05-10 05:01:23,15.08841233,0.0001363,53.2188,55.0728,99.8439,260.2707,9.0852e-05,1.158e-05,0.0,0 STARLINK-4753,1 53845U 22114AD  24131.20930305  .00001158  00000-0  90852-4 0  9991,2 53845  53.2188  55.0728 0001363  99.8439 260.2707 15.08841233 91511,6917.877,95.437,540.685,538.799,0.0
53845.0,STARLINK-4753,PAYLOAD,2024-05-10 11:22:56,15.08834597,0.0001382,53.2188,53.8816,95.2391,264.8758,5.0298e-05,5.13e-06,0.0,0 STARLINK-4753,1 53845U 22114AD  24131.47426954  .00000513  00000-0  50298-4 0  9994,2 53845  53.2188  53.8816 0001382  95.2391 264.8758 15.08834597 91558,6917.897,95.438,540.718,538.806,0.0
53845.0,STARLINK-4753,PAYLOAD,2024-05-10 22:30:38,15.08838081,0.0001504,53.2193,51.7999,101.8593,258.2568,-1.6007e-05,-5.43e-06,0.0,0 STARLINK-4753,1 53845U 22114AD  24131.93795066 -.00000543  00000-0 -16007-4 0  9993,2 53845  53.2193  51.7999 0001504 101.8593 258.2568 15.08838081 92163,6917.886,95.438,540.792,538.711,0.0
53845.0,STARLINK-4753,PAYLOAD,2024-05-11 01:41:22,15.08871089,0.0001459,53.2195,51.2043,110.4917,249.6231,0.00028133,4.196e-05,0.0,0 STARLINK-4753,1 53845U 22114AD  24132.07040465  .00004196  00000-0  28133-3 0  9993,2 53845  53.2195  51.2043 0001459 110.4917 249.6231 15.08871089 91643,6917.785,95.436,540.66,538.641,0.0
53845.0,STARLINK-4753,PAYLOAD,2024-05-11 11:13:37,15.08905425,0.0001257,53.2186,49.4203,85.956,274.1575,0.00054248,8.371e-05,0.0,0 STARLINK-4753,1 53845U 22114AD  24132.46780090  .00008371  00000-0  54248-3 0  9996,2 53845  53.2186  49.4203 0001257  85.9560 274.1575 15.08905425 91709,6917.68,95.433,540.415,538.676,0.0
53845.0,STARLINK-4753,PAYLOAD,2024-05-11 19:10:42,15.08786497,6.75e-05,53.2193,47.9344,47.3311,312.7738,-0.00043827,-7.245e-05,0.0,0 STARLINK-4753,1 53845U 22114AD  24132.79909838 -.00007245  00000-0 -43827-3 0  9997,2 53845  53.2193  47.9344 0000675  47.3311 312.7738 15.08786497 91756,6918.044,95.441,540.376,539.442,0.0
53845.0,STARLINK-4753,PAYLOAD,2024-05-11 22:21:30,15.0876879,0.0001323,53.2191,47.3402,89.1577,270.9567,-0.00058268,-9.531e-05,0.0,0 STARLINK-4753,1 53845U 22114AD  24132.93159800 -.00009531  00000-0 -58268-3 0  9994,2 53845  53.2191  47.3402 0001323  89.1577 270.9567 15.08768790 92316,6918.098,95.442,540.878,539.048,0.0
53845.0,STARLINK-4753,PAYLOAD,2024-05-12 03:07:39,15.08773163,9.81e-05,53.2182,46.4509,87.7652,272.3452,-0.00059417,-9.714e-05,0.0,0 STARLINK-4753,1 53845U 22114AD  24133.13032257 -.00009714  00000-0 -59417-3 0  9993,2 53845  53.2182  46.4509 0000981  87.7652 272.3452 15.08773163 91803,6918.085,95.442,540.628,539.271,0.0
53845.0,STARLINK-4753,PAYLOAD,2024-05-12 11:04:35,15.08779365,0.0001345,53.2194,44.9658,96.1715,263.9431,-0.00053273,-8.742e-05,0.0,0 STARLINK-4753,1 53845U 22114AD  24133.46152754 -.00008742  00000-0 -53273-3 0  9998,2 53845  53.2194  44.9658 0001345  96.1715 263.9431 15.08779365 91851,6918.066,95.441,540.861,539.0,0.0
53845.0,STARLINK-4753,PAYLOAD,2024-05-12 22:12:15,15.08820376,0.0001345,53.2201,42.8858,98.4321,261.6824,-4.6806e-05,-1.032e-05,0.0,0 STARLINK-4753,1 53845U 22114AD  24133.92517776 -.00001032  00000-0 -46806-4 0  9998,2 53845  53.2201  42.8858 0001345  98.4321 261.6824 15.08820376 92465,6917.94,95.439,540.736,538.875,0.0
53845.0,STARLINK-4753,PAYLOAD,2024-05-13 02:58:23,15.08852838,0.0001371,53.2197,41.993,106.3195,253.7948,-7.8799e-05,-1.542e-05,0.0,0 STARLINK-4753,1 53845U 22114AD  24134.12387991 -.00001542  00000-0 -78799-4 0  9997,2 53845  53.2197  41.9930 0001371 106.3195 253.7948 15.08852838 91957,6917.841,95.437,540.655,538.758,0.0
53845.0,STARLINK-4753,PAYLOAD,2024-05-13 10:55:17,15.08861645,0.0001205,53.219,40.5056,114.8659,245.2459,1.1899e-05,-9.8e-07,0.0,0 STARLINK-4753,1 53845U 22114AD  24134.45506871 -.00000098  00000-0  11899-4 0  9995,2 53845  53.2190  40.5056 0001205 114.8659 245.2459 15.08861645 92544,6917.814,95.436,540.513,538.846,0.0
53845.0,STARLINK-4753,PAYLOAD,2024-05-14 02:49:08,15.08828422,0.0001294,53.2193,37.5299,92.2718,267.8422,0.00093997,0.00014699,0.0,0 STARLINK-4753,1 53845U 22114AD  24135.11746111  .00014699  00000-0  93997-3 0  9991,2 53845  53.2193  37.5299 0001294  92.2718 267.8422 15.08828422 92103,6917.916,95.438,540.676,538.886,0.0
53845.0,STARLINK-4753,PAYLOAD,2024-05-14 10:46:05,15.08819202,0.0001321,53.2208,36.0441,94.9564,265.1579,0.00057625,8.89e-05,0.0,0 STARLINK-4753,1 53845U 22114AD  24135.44868007  .00008890  00000-0  57625-3 0  9990,2 53845  53.2208  36.0441 0001321  94.9564 265.1579 15.08819202 92157,6917.944,95.439,540.723,538.895,0.0
53845.0,STARLINK-4753,PAYLOAD,2024-05-14 21:53:48,15.08839775,0.0001589,53.2212,33.9635,94.4121,265.7053,0.00013279,1.826e-05,0.0,0 STARLINK-4753,1 53845U 22114AD  24135.91236347  .00001826  00000-0  13279-3 0  9997,2 53845  53.2212  33.9635 0001589  94.4121 265.7053 15.08839775 92760,6917.881,95.438,540.845,538.647,0.0
53845.0,STARLINK-4753,PAYLOAD,2024-05-15 02:39:56,15.0885686,0.0002154,53.2212,33.0691,104.0011,256.122,8.6899e-05,1.096e-05,0.0,0 STARLINK-4753,1 53845U 22114AD  24136.11107380  .00001096  00000-0  86899-4 0  9992,2 53845  53.2212  33.0691 0002154 104.0011 256.1220 15.08856860 92256,6917.829,95.436,541.184,538.204,0.0
53845.0,STARLINK-4753,PAYLOAD,2024-05-15 20:09:11,15.0885076,0.0001641,53.2205,29.7985,102.242,257.8756,-0.00020365,-3.529e-05,0.0,0 STARLINK-4753,1 53845U 22114AD  24136.83971780 -.00003529  00000-0 -20365-3 0  9994,2 53845  53.2205  29.7985 0001641 102.2420 257.8756 15.08850760 92367,6917.848,95.437,540.848,538.577,0.0
